NEXTSAT-1               
1 43811U 18099BF  26068.68342010  .00004546  00000+0  29857-3 0  9992
2 43811  97.4203 114.8574 0011320 323.9610  36.0854 15.08057555396886
STARLINK-4672           
1 53592U 22104E   26068.76118446  .00002142  00000+0  15258-3 0  9994
2 53592  53.2166 243.9414 0001308  88.2464 271.8678 15.08854494195956
