[{"OBJECT_NAME":"NEXTSAT-1","OBJECT_ID":"2018-099BF","EPOCH":"2026-03-09T16:24:07.497504","MEAN_MOTION":15.08057555,"ECCENTRICITY":0.001132,"INCLINATION":97.4203,"RA_OF_ASC_NODE":114.8574,"ARG_OF_PERICENTER":323.961,"MEAN_ANOMALY":36.0854,"EPHEMERIS_TYPE":0,"CLASSIFICATION_TYPE":"U","NORAD_CAT_ID":43811,"ELEMENT_SET_NO":999,"REV_AT_EPOCH":39688,"BSTAR":0.00029857014,"MEAN_MOTION_DOT":4.546e-5,"MEAN_MOTION_DDOT":0},{"OBJECT_NAME":"STARLINK-4672","OBJECT_ID":"2022-104E","EPOCH":"2026-03-09T18:16:06.337344","MEAN_MOTION":15.08854494,"ECCENTRICITY":0.00013077,"INCLINATION":53.2166,"RA_OF_ASC_NODE":243.9414,"ARG_OF_PERICENTER":88.2464,"MEAN_ANOMALY":271.8678,"EPHEMERIS_TYPE":0,"CLASSIFICATION_TYPE":"U","NORAD_CAT_ID":53592,"ELEMENT_SET_NO":999,"REV_AT_EPOCH":19595,"BSTAR":0.00015257631,"MEAN_MOTION_DOT":2.142e-5,"MEAN_MOTION_DDOT":0}]
